{
    "links": {
        "self": "http://www.neowsapp.com/rest/v1/neo/3843080?api_key=iIulBulltgU6a56xZRHN4H3l9WmuAYTsLGpBGhQ2"
    },
    "id": "3843080",
    "neo_reference_id": "3843080",
    "name": "(2019 ME3)",
    "designation": "2019 ME3",
    "nasa_jpl_url": "http://ssd.jpl.nasa.gov/sbdb.cgi?sstr=3843080",
    "absolute_magnitude_h": 24.2,
    "estimated_diameter": {
        "kilometers": {
            "estimated_diameter_min": 0.0384197891,
            "estimated_diameter_max": 0.0859092601
        },
        "meters": {
            "estimated_diameter_min": 38.4197891064,
            "estimated_diameter_max": 85.9092601232
        },
        "miles": {
            "estimated_diameter_min": 0.0238729428,
            "estimated_diameter_max": 0.0533815229
        },
        "feet": {
            "estimated_diameter_min": 126.0491808919,
            "estimated_diameter_max": 281.8545369825
        }
    },
    "is_potentially_hazardous_asteroid": false,
    "close_approach_data": [
        {
            "close_approach_date": "2019-07-07",
            "close_approach_date_full": "2019-Jul-07 23:36",
            "epoch_date_close_approach": 1562542560000,
            "relative_velocity": {
                "kilometers_per_second": "8.2119343192",
                "kilometers_per_hour": "29562.9635491028",
                "miles_per_hour": "18369.2758786078"
            },
            "miss_distance": {
                "astronomical": "0.0324367312",
                "lunar": "12.6178884368",
                "kilometers": "4852465.897282544",
                "miles": "3015182.4927013472"
            },
            "orbiting_body": "Earth"
        },
        {
            "close_approach_date": "2044-05-08",
            "close_approach_date_full": "2044-May-08 01:54",
            "epoch_date_close_approach": 2346285240000,
            "relative_velocity": {
                "kilometers_per_second": "17.0573881379",
                "kilometers_per_hour": "61406.5972964908",
                "miles_per_hour": "38155.6715257001"
            },
            "miss_distance": {
                "astronomical": "0.3276445309",
                "lunar": "127.4537225201",
                "kilometers": "49014923.939789183",
                "miles": "30456461.4513014054"
            },
            "orbiting_body": "Earth"
        },
        {
            "close_approach_date": "2100-07-08",
            "close_approach_date_full": "2100-Jul-08 06:56",
            "epoch_date_close_approach": 4118712960000,
            "relative_velocity": {
                "kilometers_per_second": "8.2567728673",
                "kilometers_per_hour": "29724.3823221416",
                "miles_per_hour": "18469.5752267774"
            },
            "miss_distance": {
                "astronomical": "0.0287236958",
                "lunar": "11.1735176662",
                "kilometers": "4297003.710207946",
                "miles": "2670034.2943878148"
            },
            "orbiting_body": "Earth"
        },
        {
            "close_approach_date": "2108-02-15",
            "close_approach_date_full": "2108-Feb-15 07:14",
            "epoch_date_close_approach": 4358733240000,
            "relative_velocity": {
                "kilometers_per_second": "2.1142696276",
                "kilometers_per_hour": "7611.3706592453",
                "miles_per_hour": "4729.4097299072"
            },
            "miss_distance": {
                "astronomical": "1.9467083002",
                "lunar": "757.2695287778",
                "kilometers": "291223415.221240574",
                "miles": "180957839.0919809612"
            },
            "orbiting_body": "Juptr"
        }
    ],
    "orbital_data": {
        "orbit_id": "1",
        "orbit_determination_date": "2019-07-02 05:51:13",
        "first_observation_date": "2019-05-09",
        "last_observation_date": "2019-07-02",
        "data_arc_in_days": 54,
        "observations_used": 18,
        "orbit_uncertainty": "6",
        "minimum_orbit_intersection": ".0130202",
        "jupiter_tisserand_invariant": "3.525",
        "epoch_osculation": "2459000.5",
        "eccentricity": ".5177394542193514",
        "semi_major_axis": "2.134520464822134",
        "inclination": "7.077674326726301",
        "ascending_node_longitude": "95.42363921457387",
        "orbital_period": "1139.066059144883",
        "perihelion_distance": "1.029395004345086",
        "perihelion_argument": "179.8405818696352",
        "aphelion_distance": "3.239645925299182",
        "perihelion_time": "2458664.717853718513",
        "mean_anomaly": "106.123408463319",
        "mean_motion": ".3160483951828557",
        "equinox": "J2000",
        "orbit_class": {
            "orbit_class_type": "AMO",
            "orbit_class_description": "Near-Earth asteroid orbits similar to that of 1221 Amor",
            "orbit_class_range": "1.017 AU < q (perihelion) < 1.3 AU"
        }
    },
    "is_sentry_object": false
}